{"fetched_at":"2026-07-19T07:04:59.916Z","source":"https://celestrak.org/NORAD/elements/gp.php?NAME=ASTROCAST&FORMAT=JSON","constellation":"astrocast","records":[{"OBJECT_NAME":"ASTROCAST 0.1","OBJECT_ID":"2018-099AS","EPOCH":"2026-07-18T19:37:14.770848","CLASSIFICATION_TYPE":"U","MEAN_MOTION":15.51623308,"ECCENTRICITY":0.000544,"INCLINATION":97.4365,"RA_OF_ASC_NODE":279.3498,"ARG_OF_PERICENTER":119.5127,"MEAN_ANOMALY":240.6668,"EPHEMERIS_TYPE":0,"NORAD_CAT_ID":43798,"ELEMENT_SET_NO":999,"REV_AT_EPOCH":41933,"BSTAR":0.00039444,"MEAN_MOTION_DOT":0.00023362,"MEAN_MOTION_DDOT":0},{"OBJECT_NAME":"ASTROCAST-0402","OBJECT_ID":"2023-001DE","EPOCH":"2026-07-18T18:53:36.146688","CLASSIFICATION_TYPE":"U","MEAN_MOTION":15.29063262,"ECCENTRICITY":0.00066,"INCLINATION":97.558,"RA_OF_ASC_NODE":293.4698,"ARG_OF_PERICENTER":125.1741,"MEAN_ANOMALY":235.0117,"EPHEMERIS_TYPE":0,"NORAD_CAT_ID":55109,"ELEMENT_SET_NO":999,"REV_AT_EPOCH":14936,"BSTAR":0.00026389,"MEAN_MOTION_DOT":0.00007373,"MEAN_MOTION_DDOT":0},{"OBJECT_NAME":"ASTROCAST-0401","OBJECT_ID":"2023-001DF","EPOCH":"2026-07-18T19:17:28.728672","CLASSIFICATION_TYPE":"U","MEAN_MOTION":15.28623343,"ECCENTRICITY":0.0009522,"INCLINATION":97.5563,"RA_OF_ASC_NODE":293.2886,"ARG_OF_PERICENTER":97.9426,"MEAN_ANOMALY":262.2895,"EPHEMERIS_TYPE":0,"NORAD_CAT_ID":55110,"ELEMENT_SET_NO":999,"REV_AT_EPOCH":19603,"BSTAR":0.00036443,"MEAN_MOTION_DOT":0.00010085,"MEAN_MOTION_DDOT":0},{"OBJECT_NAME":"ASTROCAST-0403","OBJECT_ID":"2023-001DG","EPOCH":"2026-07-18T19:28:31.363968","CLASSIFICATION_TYPE":"U","MEAN_MOTION":15.32454776,"ECCENTRICITY":0.000505,"INCLINATION":97.5619,"RA_OF_ASC_NODE":294.6409,"ARG_OF_PERICENTER":199.2101,"MEAN_ANOMALY":160.895,"EPHEMERIS_TYPE":0,"NORAD_CAT_ID":55111,"ELEMENT_SET_NO":999,"REV_AT_EPOCH":14940,"BSTAR":0.00042388,"MEAN_MOTION_DOT":0.00013216,"MEAN_MOTION_DDOT":0},{"OBJECT_NAME":"ASTROCAST-0404","OBJECT_ID":"2023-001DH","EPOCH":"2026-07-18T19:42:41.999616","CLASSIFICATION_TYPE":"U","MEAN_MOTION":15.2885636,"ECCENTRICITY":0.0005367,"INCLINATION":97.5667,"RA_OF_ASC_NODE":294.4403,"ARG_OF_PERICENTER":227.3276,"MEAN_ANOMALY":132.7511,"EPHEMERIS_TYPE":0,"NORAD_CAT_ID":55112,"ELEMENT_SET_NO":999,"REV_AT_EPOCH":14936,"BSTAR":0.00015841,"MEAN_MOTION_DOT":0.00004364,"MEAN_MOTION_DDOT":0}]}
