ASTROCAST 0.1           
1 43798U 18099AS  26199.81753207  .00023362  00000+0  39444-3 0  9990
2 43798  97.4365 279.3498 0005440 119.5127 240.6668 15.51623308419334
ASTROCAST-0402          
1 55109U 23001DE  26199.78722392  .00007373  00000+0  26389-3 0  9993
2 55109  97.5580 293.4698 0006600 125.1741 235.0117 15.29063262149368
ASTROCAST-0401          
1 55110U 23001DF  26199.80380473  .00010085  00000+0  36443-3 0  9994
2 55110  97.5563 293.2886 0009522  97.9426 262.2895 15.28623343196032
ASTROCAST-0403          
1 55111U 23001DG  26199.81147412  .00013216  00000+0  42388-3 0  9994
2 55111  97.5619 294.6409 0005050 199.2101 160.8950 15.32454776149400
ASTROCAST-0404          
1 55112U 23001DH  26199.82131944  .00004364  00000+0  15841-3 0  9997
2 55112  97.5667 294.4403 0005367 227.3276 132.7511 15.28856360149369
